IRIDIUM 112             
1 41925U 17003J   25015.31159813  .00000316  00000+0  10577-3 0  9998
2 41925  86.3982 304.7092 0002065  76.9478 283.1949 14.34217004419048
IRIDIUM 111             
1 41926U 17003K   25015.29891201  .00000492  00000+0  16871-3 0  9998
2 41926  86.3985 304.7736 0002136  88.0315 272.1125 14.34211523419022
IRIDIUM 113             
1 42803U 17039A   25015.48818061  .00000084  00000+0  22825-4 0  9990
2 42803  86.4006 178.5138 0001655  83.3285 276.8099 14.34218902396982
IRIDIUM 123             
1 42804U 17039B   25015.59943305  .00000135  00000+0  41021-4 0  9999
2 42804  86.3971 209.8997 0001936  97.3296 262.8120 14.34218929395767
IRIDIUM 120             
1 42805U 17039C   25015.48184165 -.00000099  00000+0 -42264-4 0  9990
2 42805  86.4001 178.3665 0002103 100.7528 259.3904 14.34217069396978
IRIDIUM 115             
1 42806U 17039D   25015.49452388  .00000800  00000+0  23186-3 0  9996
2 42806  86.4533 178.4170 0001744 104.9170 255.2224 14.43275454399593
IRIDIUM 118             
1 42807U 17039E   25015.56138100  .00000133  00000+0  40590-4 0  9996
2 42807  86.3971 209.9159 0001975  89.3880 270.7543 14.34218227395751
IRIDIUM 117             
1 42808U 17039F   25015.58040012  .00000136  00000+0  41534-4 0  9995
2 42808  86.3971 209.8706 0001888  99.5868 260.5542 14.34217324395787
